DUCHIFAT-1              
1 40021U 14033M   26169.10885855  .00082132  00000+0  84010-3 0  9993
2 40021  98.0458 228.3980 0002731 118.1030 242.0504 15.64751867655892
NANOSATC-BR1            
1 40024U 14033Q   26169.05482056  .00013269  00000+0  43894-3 0  9996
2 40024  98.0715 201.5196 0004490 160.3673 199.7740 15.31480608654119
QB50P1                  
1 40025U 14033R   26169.00685221  .00006382  00000+0  31496-3 0  9994
2 40025  98.0961 180.2104 0007885 212.2174 147.8578 15.18271143653152
DTUSAT-2                
1 40030U 14033W   26168.96442267  .00005184  00000+0  28133-3 0  9998
2 40030  98.0863 166.7407 0006695 222.1989 137.8727 15.15025112652802
QB50P2                  
1 40032U 14033Y   26168.95863104  .00005583  00000+0  30133-3 0  9992
2 40032  98.0749 165.8867 0008094 160.8640 199.2897 15.15166479652783
PERSEUS-M1              
1 40039U 14033AF  26168.83898993  .00001267  00000+0  11943-3 0  9993
2 40039  97.9641 112.9814 0010261 298.8550  61.1639 14.95632448650730
POLYITAN-1              
1 40042U 14033AJ  26169.03120981  .00015610  00000+0  48715-3 0  9999
2 40042  98.0938 195.3722 0008691 138.9044 221.2853 15.33281524653721
TIGRISAT                
1 40043U 14033AK  26168.99172080  .00001648  00000+0  19441-3 0  9991
2 40043  97.7830 318.9847 0050574  72.6516 288.0222 14.85165216645744
CANX-4                  
1 40055U 14034C   26169.09760200  .00000721  00000+0  99764-4 0  9992
2 40055  98.3121  44.4441 0013098  14.2311 345.9267 14.81266161644662
CANX-5                  
1 40056U 14034D   26169.09602465  .00000724  00000+0  10012-3 0  9992
2 40056  98.3122  44.4861 0013108  14.4282 345.7301 14.81283401635473
GONETS-M 10             
1 40063U 14036C   26169.27785186  .00000039  00000+0  20705-3 0  9993
2 40063  82.5118 306.9962 0022676 138.2461 222.0355 12.42945714542383
METEOR-M 2              
1 40069U 14037A   26169.27184311  .00000505  00000+0  25032-3 0  9999
2 40069  98.5114 144.9723 0006727  41.4364 318.7323 14.21463025619475
DX1                     
1 40071U 14037C   26169.30161394  .00001542  00000+0  16647-3 0  9996
2 40071  98.3869 131.0713 0005762 271.0987  88.9569 14.89987811646273
UKUBE-1                 
1 40074U 14037F   26168.96158025  .00007654  00000+0  43097-3 0  9996
2 40074  98.4232 172.3147 0002640 131.7969 228.3486 15.13564400648671
GAOFEN-2                
1 40118U 14049A   26169.32500042  .00000020  00000+0  95385-5 0  9998
2 40118  98.0107 233.5311 0006196 223.1022 136.9706 14.80897505639404
BRITE-PL2 (HEWELIUSZ)   
1 40119U 14049B   26169.24354178  .00001570  00000+0  15025-3 0  9999
2 40119  97.9099 281.2515 0015313 105.3590 254.9323 14.94596501641609
CBERS 4                 
1 40336U 14079A   26169.29184722 -.00000038  00000+0  16213-5 0  9995
2 40336  98.3529 226.0888 0001794  63.5083 296.6287 14.35508949604114
SMAP                    
1 40376U 15003A   26169.24229011  .00000324  00000+0  71825-4 0  9999
2 40376  98.1276 176.3218 0001338  96.3669 263.7685 14.63367391607774
GONETS-M 11             
1 40552U 15020A   26169.29632727  .00000073  00000+0  45808-3 0  9993
2 40552  82.4864  30.3006 0016598   3.4554 356.6637 12.42877536508871
GONETS-M 12             
1 40553U 15020B   26169.26980494  .00000121  00000+0  80011-3 0  9997
2 40553  82.4899  31.4414 0015283 348.6870  11.3864 12.42891657508866
GONETS-M 13             
1 40554U 15020C   26169.24330527  .00000140  00000+0  94219-3 0  9998
2 40554  82.4860  30.0725 0013619 334.0300  26.0095 12.42871007508836
DMC3-FM1                
1 40715U 15032A   26169.28293212 -.00000140  00000+0 -10236-4 0  9993
2 40715  97.6455  34.4152 0007014  56.3115 303.8769 14.85738070590077
DMC3-FM2                
1 40716U 15032B   26169.23763360  .00000261  00000+0  35977-4 0  9996
2 40716  97.6508  35.9457 0007513  60.8169 299.3798 14.85743689590066
DMC3-FM3                
1 40717U 15032C   26169.26096685  .00000812  00000+0  99455-4 0  9992
2 40717  97.6561  37.7221 0006764  61.5089 298.6808 14.85735501590070
CARBONITE 1 (CBNT-1)    
1 40718U 15032D   26169.26164066  .00001505  00000+0  18851-3 0  9992
2 40718  97.6503 347.2823 0013108 294.3950  65.5896 14.83590557589509
LILACSAT-2              
1 40908U 15049K   26169.30422414  .00013413  00000+0  22865-3 0  9991
2 40908  97.4638 206.1883 0005578 239.4164 120.6538 15.51475148595928
