OBJECT_NAME,OBJECT_ID,EPOCH,MEAN_MOTION,ECCENTRICITY,INCLINATION,RA_OF_ASC_NODE,ARG_OF_PERICENTER,MEAN_ANOMALY,EPHEMERIS_TYPE,CLASSIFICATION_TYPE,NORAD_CAT_ID,ELEMENT_SET_NO,REV_AT_EPOCH,BSTAR,MEAN_MOTION_DOT,MEAN_MOTION_DDOT
DUCHIFAT-1,2014-033M,2026-06-18T02:36:45.378720,15.64751867,.00027316,98.0458,228.3980,118.1030,242.0504,0,U,40021,999,65589,.8400996E-3,.82132E-3,0
NANOSATC-BR1,2014-033Q,2026-06-18T01:18:56.496384,15.31480608,.00044904,98.0715,201.5196,160.3673,199.7740,0,U,40024,999,65411,.43893886E-3,.13269E-3,0
QB50P1,2014-033R,2026-06-18T00:09:52.030944,15.18271143,.00078854,98.0961,180.2104,212.2174,147.8578,0,U,40025,999,65315,.31496322E-3,.6382E-4,0
DTUSAT-2,2014-033W,2026-06-17T23:08:46.118688,15.15025112,.00066952,98.0863,166.7407,222.1989,137.8727,0,U,40030,999,65280,.28133136E-3,.5184E-4,0
QB50P2,2014-033Y,2026-06-17T23:00:25.721856,15.15166479,.00080949,98.0749,165.8867,160.8640,199.2897,0,U,40032,999,65278,.3013334E-3,.5583E-4,0
PERSEUS-M1,2014-033AF,2026-06-17T20:08:08.729952,14.95632448,.00102619,97.9641,112.9814,298.8550,61.1639,0,U,40039,999,65073,.11943002E-3,.1267E-4,0
POLYITAN-1,2014-033AJ,2026-06-18T00:44:56.527584,15.33281524,.00086912,98.0938,195.3722,138.9044,221.2853,0,U,40042,999,65372,.4871518E-3,.1561E-3,0
TIGRISAT,2014-033AK,2026-06-17T23:48:04.677120,14.85165216,.00505745,97.7830,318.9847,72.6516,288.0222,0,U,40043,999,64574,.19440802E-3,.1648E-4,0
CANX-4,2014-034C,2026-06-18T02:20:32.812800,14.81266161,.00130986,98.3121,44.4441,14.2311,345.9267,0,U,40055,999,64466,.99764147E-4,.721E-5,0
CANX-5,2014-034D,2026-06-18T02:18:16.529760,14.81283401,.00131082,98.3122,44.4861,14.4282,345.7301,0,U,40056,999,63547,.10011925E-3,.724E-5,0
GONETS-M 10,2014-036C,2026-06-18T06:40:06.400704,12.42945714,.00226769,82.5118,306.9962,138.2461,222.0355,0,U,40063,999,54238,.2070467E-3,.39E-6,0
METEOR-M 2,2014-037A,2026-06-18T06:31:27.244704,14.21463025,.00067272,98.5114,144.9723,41.4364,318.7323,0,U,40069,999,61947,.25031526E-3,.505E-5,0
DX1,2014-037C,2026-06-18T07:14:19.444416,14.89987811,.00057626,98.3869,131.0713,271.0987,88.9569,0,U,40071,999,64627,.16647371E-3,.1542E-4,0
UKUBE-1,2014-037F,2026-06-17T23:04:40.533600,15.13564400,.000264,98.4232,172.3147,131.7969,228.3486,0,U,40074,999,64867,.43096833E-3,.7654E-4,0
GAOFEN-2,2014-049A,2026-06-18T07:48:00.036288,14.80897505,.00061967,98.0107,233.5311,223.1022,136.9706,0,U,40118,999,63940,.953846E-5,.2E-6,0
BRITE-PL2 (HEWELIUSZ),2014-049B,2026-06-18T05:50:42.009792,14.94596501,.0015313,97.9099,281.2515,105.3590,254.9323,0,U,40119,999,64160,.15024742E-3,.157E-4,0
CBERS 4,2014-079A,2026-06-18T07:00:15.599808,14.35508949,.00017942,98.3529,226.0888,63.5083,296.6287,0,U,40336,999,60411,.1621261E-5,-.38E-6,0
SMAP,2015-003A,2026-06-18T05:48:53.865504,14.63367391,.00013386,98.1276,176.3218,96.3669,263.7685,0,U,40376,999,60777,.71824829E-4,.324E-5,0
GONETS-M 11,2015-020A,2026-06-18T07:06:42.676128,12.42877536,.00165983,82.4864,30.3006,3.4554,356.6637,0,U,40552,999,50887,.45808491E-3,.73E-6,0
GONETS-M 12,2015-020B,2026-06-18T06:28:31.146816,12.42891657,.00152838,82.4899,31.4414,348.6870,11.3864,0,U,40553,999,50886,.80010787E-3,.121E-5,0
GONETS-M 13,2015-020C,2026-06-18T05:50:21.575328,12.42871007,.0013619,82.4860,30.0725,334.0300,26.0095,0,U,40554,999,50883,.94219329E-3,.14E-5,0
DMC3-FM1,2015-032A,2026-06-18T06:47:25.335168,14.85738070,.00070142,97.6455,34.4152,56.3115,303.8769,0,U,40715,999,59007,-.10235958E-4,-.14E-5,0
DMC3-FM2,2015-032B,2026-06-18T05:42:11.543040,14.85743689,.00075131,97.6508,35.9457,60.8169,299.3798,0,U,40716,999,59006,.35977054E-4,.261E-5,0
DMC3-FM3,2015-032C,2026-06-18T06:15:47.535840,14.85735501,.0006764,97.6561,37.7221,61.5089,298.6808,0,U,40717,999,59007,.99454544E-4,.812E-5,0
CARBONITE 1 (CBNT-1),2015-032D,2026-06-18T06:16:45.753024,14.83590557,.00131081,97.6503,347.2823,294.3950,65.5896,0,U,40718,999,58950,.18850615E-3,.1505E-4,0
LILACSAT-2,2015-049K,2026-06-18T07:18:04.965696,15.51475148,.00055781,97.4638,206.1883,239.4164,120.6538,0,U,40908,999,59592,.22865203E-3,.13413E-3,0
